{
    "links": {
        "self": "http://www.neowsapp.com/rest/v1/neo/3841698?api_key=iIulBulltgU6a56xZRHN4H3l9WmuAYTsLGpBGhQ2"
    },
    "id": "3841698",
    "neo_reference_id": "3841698",
    "name": "(2019 JZ)",
    "designation": "2019 JZ",
    "nasa_jpl_url": "http://ssd.jpl.nasa.gov/sbdb.cgi?sstr=3841698",
    "absolute_magnitude_h": 23.2,
    "estimated_diameter": {
        "kilometers": {
            "estimated_diameter_min": 0.0608912622,
            "estimated_diameter_max": 0.1361570015
        },
        "meters": {
            "estimated_diameter_min": 60.8912622106,
            "estimated_diameter_max": 136.1570015386
        },
        "miles": {
            "estimated_diameter_min": 0.0378360645,
            "estimated_diameter_max": 0.0846040122
        },
        "feet": {
            "estimated_diameter_min": 199.7744887109,
            "estimated_diameter_max": 446.7093369279
        }
    },
    "is_potentially_hazardous_asteroid": false,
    "close_approach_data": [
        {
            "close_approach_date": "2019-04-22",
            "close_approach_date_full": "2019-Apr-22 09:35",
            "epoch_date_close_approach": 1555925700000,
            "relative_velocity": {
                "kilometers_per_second": "3.6951746451",
                "kilometers_per_hour": "13302.6287223567",
                "miles_per_hour": "8265.7361636221"
            },
            "miss_distance": {
                "astronomical": "0.3024126301",
                "lunar": "117.6385131089",
                "kilometers": "45240285.324057887",
                "miles": "28111009.7755253606"
            },
            "orbiting_body": "Earth"
        }
    ],
    "orbital_data": {
        "orbit_id": "3",
        "orbit_determination_date": "2019-05-14 07:25:10",
        "first_observation_date": "2019-05-01",
        "last_observation_date": "2019-05-14",
        "data_arc_in_days": 13,
        "observations_used": 19,
        "orbit_uncertainty": "8",
        "minimum_orbit_intersection": ".2733",
        "jupiter_tisserand_invariant": "3.186",
        "epoch_osculation": "2458605.5",
        "eccentricity": ".5168463241117115",
        "semi_major_axis": "2.642887364381171",
        "inclination": "4.000992067085187",
        "ascending_node_longitude": "239.611523368463",
        "orbital_period": "1569.337703196462",
        "perihelion_distance": "1.276920745059473",
        "perihelion_argument": "332.7162217396336",
        "aphelion_distance": "4.008853983702868",
        "perihelion_time": "2458603.823659007073",
        "mean_anomaly": ".3845461408494379",
        "mean_motion": ".2293961326913538",
        "equinox": "J2000",
        "orbit_class": {
            "orbit_class_type": "AMO",
            "orbit_class_description": "Near-Earth asteroid orbits similar to that of 1221 Amor",
            "orbit_class_range": "1.017 AU < q (perihelion) < 1.3 AU"
        }
    },
    "is_sentry_object": false
}